{"type": "FeatureCollection", "features": [ {"type": "Feature", "properties": {"norad_id": 34117, "name": "COSMOS 2251 DEB", "group": "cosmos-2251-debris", "lat": -46.68950054725749, "lon": 169.2430912137109, "alt_km": 803.8419688338063, "timestamp": "2025-12-19T08:58:49.730790+00:00", "meta": {"OBJECT_NAME": "COSMOS 2251 DEB", "OBJECT_ID": "1993-036KN", "EPOCH": "2025-12-18T15:14:56.140800", "MEAN_MOTION": 14.40034351, "ECCENTRICITY": 0.00547671, "INCLINATION": 74.04, "RA_OF_ASC_NODE": 332.9353, "ARG_OF_PERICENTER": 47.6023, "MEAN_ANOMALY": 312.9747, "EPHEMERIS_TYPE": 0, "CLASSIFICATION_TYPE": "U", "NORAD_CAT_ID": 34117, "ELEMENT_SET_NO": 999, "REV_AT_EPOCH": 88208, "BSTAR": 0.00050892702, "MEAN_MOTION_DOT": 1.607e-05, "MEAN_MOTION_DDOT": 0}, "tle": {"line1": "1 34117U 93036KN  25352.63537200  .00001607  00000+0  50893-3 0  9991", "line2": "2 34117  74.0400 332.9353 0054767  47.6023 312.9747 14.40034351882086"}}, "geometry": {"type": "Point", "coordinates": [169.2430912137109, -46.68950054725749]}}, {"type": "Feature", "properties": {"norad_id": 34118, "name": "COSMOS 2251 DEB", "group": "cosmos-2251-debris", "lat": 28.227717669085497, "lon": 46.98731440949615, "alt_km": 580.1946650416321, "timestamp": "2025-12-19T08:58:49.730800+00:00", "meta": {"OBJECT_NAME": "COSMOS 2251 DEB", "OBJECT_ID": "1993-036KP", "EPOCH": "2025-12-18T19:47:13.217856", "MEAN_MOTION": 14.94148873, "ECCENTRICITY": 0.00600655, "INCLINATION": 73.9521, "RA_OF_ASC_NODE": 236.9887, "ARG_OF_PERICENTER": 65.7247, "MEAN_ANOMALY": 8.2872, "EPHEMERIS_TYPE": 0, "CLASSIFICATION_TYPE": "U", "NORAD_CAT_ID": 34118, "ELEMENT_SET_NO": 999, "REV_AT_EPOCH": 89267, "BSTAR": 0.0011183228, "MEAN_MOTION_DOT": 0.00012385, "MEAN_MOTION_DDOT": 0}, "tle": {"line1": "1 34118U 93036KP  25352.82445854  .00012385  00000+0  11183-2 0  9999", "line2": "2 34118  73.9521 236.9887 0060065  65.7247   8.2872 14.94148873892675"}}, "geometry": {"type": "Point", "coordinates": [46.98731440949615, 28.227717669085497]}}, {"type": "Feature", "properties": {"norad_id": 34120, "name": "COSMOS 2251 DEB", "group": "cosmos-2251-debris", "lat": 72.77171168249505, "lon": -87.47169925178859, "alt_km": 809.0171697266305, "timestamp": "2025-12-19T08:58:49.730810+00:00", "meta": {"OBJECT_NAME": "COSMOS 2251 DEB", "OBJECT_ID": "1993-036KR", "EPOCH": "2025-12-18T22:35:28.254336", "MEAN_MOTION": 13.98690678, "ECCENTRICITY": 0.01822215, "INCLINATION": 73.9905, "RA_OF_ASC_NODE": 205.4788, "ARG_OF_PERICENTER": 31.7852, "MEAN_ANOMALY": 31.2858, "EPHEMERIS_TYPE": 0, "CLASSIFICATION_TYPE": "U", "NORAD_CAT_ID": 34120, "ELEMENT_SET_NO": 999, "REV_AT_EPOCH": 86067, "BSTAR": 0.00028088654, "MEAN_MOTION_DOT": 4.42e-06, "MEAN_MOTION_DDOT": 0}, "tle": {"line1": "1 34120U 93036KR  25352.94129924  .00000442  00000+0  28089-3 0  9997", "line2": "2 34120  73.9905 205.4788 0182221  31.7852  31.2858 13.98690678860672"}}, "geometry": {"type": "Point", "coordinates": [-87.47169925178859, 72.77171168249505]}}, {"type": "Feature", "properties": {"norad_id": 34121, "name": "COSMOS 2251 DEB", "group": "cosmos-2251-debris", "lat": 45.02836842272216, "lon": -110.89802226978045, "alt_km": 1078.999482835683, "timestamp": "2025-12-19T08:58:49.730820+00:00", "meta": {"OBJECT_NAME": "COSMOS 2251 DEB", "OBJECT_ID": "1993-036KS", "EPOCH": "2025-12-18T17:22:08.209632", "MEAN_MOTION": 13.91950167, "ECCENTRICITY": 0.02406302, "INCLINATION": 73.9924, "RA_OF_ASC_NODE": 86.9157, "ARG_OF_PERICENTER": 291.1042, "MEAN_ANOMALY": 184.1937, "EPHEMERIS_TYPE": 0, "CLASSIFICATION_TYPE": "U", "NORAD_CAT_ID": 34121, "ELEMENT_SET_NO": 999, "REV_AT_EPOCH": 85208, "BSTAR": 0.00093095944, "MEAN_MOTION_DOT": 1.479e-05, "MEAN_MOTION_DDOT": 0}, "tle": {"line1": "1 34121U 93036KS  25352.72370613  .00001479  00000+0  93096-3 0  9998", "line2": "2 34121  73.9924  86.9157 0240630 291.1042 184.1937 13.91950167852085"}}, "geometry": {"type": "Point", "coordinates": [-110.89802226978045, 45.02836842272216]}}, {"type": "Feature", "properties": {"norad_id": 34122, "name": "COSMOS 2251 DEB", "group": "cosmos-2251-debris", "lat": -29.96369526654427, "lon": 96.37090947568907, "alt_km": 631.5163805759794, "timestamp": "2025-12-19T08:58:49.730830+00:00", "meta": {"OBJECT_NAME": "COSMOS 2251 DEB", "OBJECT_ID": "1993-036KT", "EPOCH": "2025-12-18T17:17:24.304416", "MEAN_MOTION": 14.65118878, "ECCENTRICITY": 0.00846574, "INCLINATION": 74.0359, "RA_OF_ASC_NODE": 107.1272, "ARG_OF_PERICENTER": 2.2873, "MEAN_ANOMALY": 120.2038, "EPHEMERIS_TYPE": 0, "CLASSIFICATION_TYPE": "U", "NORAD_CAT_ID": 34122, "ELEMENT_SET_NO": 999, "REV_AT_EPOCH": 88772, "BSTAR": 0.00081046809, "MEAN_MOTION_DOT": 4.56e-05, "MEAN_MOTION_DDOT": 0}, "tle": {"line1": "1 34122U 93036KT  25352.72042019  .00004560  00000+0  81047-3 0  9992", "line2": "2 34122  74.0359 107.1272 0084657   2.2873 120.2038 14.65118878887721"}}, "geometry": {"type": "Point", "coordinates": [96.37090947568907, -29.96369526654427]}}, {"type": "Feature", "properties": {"norad_id": 34127, "name": "COSMOS 2251 DEB", "group": "cosmos-2251-debris", "lat": 20.002626371789212, "lon": -154.05030399775688, "alt_km": 759.0567085669809, "timestamp": "2025-12-19T08:58:49.730839+00:00", "meta": {"OBJECT_NAME": "COSMOS 2251 DEB", "OBJECT_ID": "1993-036KY", "EPOCH": "2025-12-18T14:22:22.800864", "MEAN_MOTION": 14.31597296, "ECCENTRICITY": 0.0114958, "INCLINATION": 74.1793, "RA_OF_ASC_NODE": 33.2747, "ARG_OF_PERICENTER": 232.1614, "MEAN_ANOMALY": 254.0003, "EPHEMERIS_TYPE": 0, "CLASSIFICATION_TYPE": "U", "NORAD_CAT_ID": 34127, "ELEMENT_SET_NO": 999, "REV_AT_EPOCH": 86855, "BSTAR": 0.0012510289, "MEAN_MOTION_DOT": 3.557e-05, "MEAN_MOTION_DDOT": 0}, "tle": {"line1": "1 34127U 93036KY  25352.59887501  .00003557  00000+0  12510-2 0  9998", "line2": "2 34127  74.1793  33.2747 0114958 232.1614 254.0003 14.31597296868556"}}, "geometry": {"type": "Point", "coordinates": [-154.05030399775688, 20.002626371789212]}}, {"type": "Feature", "properties": {"norad_id": 34128, "name": "COSMOS 2251 DEB", "group": "cosmos-2251-debris", "lat": -47.523936887236935, "lon": 121.44626819927659, "alt_km": 586.4285097947477, "timestamp": "2025-12-19T08:58:49.730850+00:00", "meta": {"OBJECT_NAME": "COSMOS 2251 DEB", "OBJECT_ID": "1993-036KZ", "EPOCH": "2025-12-18T21:00:50.626944", "MEAN_MOTION": 15.01396228, "ECCENTRICITY": 0.00260923, "INCLINATION": 73.9993, "RA_OF_ASC_NODE": 284.1982, "ARG_OF_PERICENTER": 35.1477, "MEAN_ANOMALY": 21.1501, "EPHEMERIS_TYPE": 0, "CLASSIFICATION_TYPE": "U", "NORAD_CAT_ID": 34128, "ELEMENT_SET_NO": 999, "REV_AT_EPOCH": 89259, "BSTAR": 0.0012087292, "MEAN_MOTION_DOT": 0.00015702, "MEAN_MOTION_DDOT": 0}, "tle": {"line1": "1 34128U 93036KZ  25352.87558596  .00015702  00000+0  12087-2 0  9993", "line2": "2 34128  73.9993 284.1982 0026092  35.1477  21.1501 15.01396228892590"}}, "geometry": {"type": "Point", "coordinates": [121.44626819927659, -47.523936887236935]}}, {"type": "Feature", "properties": {"norad_id": 34129, "name": "COSMOS 2251 DEB", "group": "cosmos-2251-debris", "lat": -70.4838899840885, "lon": -159.58386306881607, "alt_km": 668.9687355803153, "timestamp": "2025-12-19T08:58:49.730859+00:00", "meta": {"OBJECT_NAME": "COSMOS 2251 DEB", "OBJECT_ID": "1993-036LA", "EPOCH": "2025-12-18T09:02:11.415264", "MEAN_MOTION": 14.75834585, "ECCENTRICITY": 0.00331651, "INCLINATION": 74.0348, "RA_OF_ASC_NODE": 328.4951, "ARG_OF_PERICENTER": 48.1918, "MEAN_ANOMALY": 312.208, "EPHEMERIS_TYPE": 0, "CLASSIFICATION_TYPE": "U", "NORAD_CAT_ID": 34129, "ELEMENT_SET_NO": 999, "REV_AT_EPOCH": 61381, "BSTAR": 0.0011762776, "MEAN_MOTION_DOT": 8.117e-05, "MEAN_MOTION_DDOT": 0}, "tle": {"line1": "1 34129U 93036LA  25352.37652101  .00008117  00000+0  11763-2 0  9998", "line2": "2 34129  74.0348 328.4951 0033165  48.1918 312.2080 14.75834585613813"}}, "geometry": {"type": "Point", "coordinates": [-159.58386306881607, -70.4838899840885]}}, {"type": "Feature", "properties": {"norad_id": 34136, "name": "COSMOS 2251 DEB", "group": "cosmos-2251-debris", "lat": 22.739616195636287, "lon": -157.34919785082153, "alt_km": 568.6972060379403, "timestamp": "2025-12-19T08:58:49.730869+00:00", "meta": {"OBJECT_NAME": "COSMOS 2251 DEB", "OBJECT_ID": "1993-036LH", "EPOCH": "2025-12-18T13:29:26.234016", "MEAN_MOTION": 14.80117749, "ECCENTRICITY": 0.00853475, "INCLINATION": 74.0204, "RA_OF_ASC_NODE": 31.1496, "ARG_OF_PERICENTER": 152.5564, "MEAN_ANOMALY": 358.2497, "EPHEMERIS_TYPE": 0, "CLASSIFICATION_TYPE": "U", "NORAD_CAT_ID": 34136, "ELEMENT_SET_NO": 999, "REV_AT_EPOCH": 90096, "BSTAR": 0.00028114564, "MEAN_MOTION_DOT": 2.233e-05, "MEAN_MOTION_DDOT": 0}, "tle": {"line1": "1 34136U 93036LH  25352.56210919  .00002233  00000+0  28115-3 0  9997", "line2": "2 34136  74.0204  31.1496 0085347 152.5564 358.2497 14.80117749900969"}}, "geometry": {"type": "Point", "coordinates": [-157.34919785082153, 22.739616195636287]}}, {"type": "Feature", "properties": {"norad_id": 34139, "name": "COSMOS 2251 DEB", "group": "cosmos-2251-debris", "lat": 72.72508884412345, "lon": -5.624021563255273, "alt_km": 713.2953454104027, "timestamp": "2025-12-19T08:58:49.730891+00:00", "meta": {"OBJECT_NAME": "COSMOS 2251 DEB", "OBJECT_ID": "1993-036LL", "EPOCH": "2025-12-18T16:11:13.051968", "MEAN_MOTION": 14.59140035, "ECCENTRICITY": 0.00425473, "INCLINATION": 74.0309, "RA_OF_ASC_NODE": 242.7506, "ARG_OF_PERICENTER": 312.858, "MEAN_ANOMALY": 69.3893, "EPHEMERIS_TYPE": 0, "CLASSIFICATION_TYPE": "U", "NORAD_CAT_ID": 34139, "ELEMENT_SET_NO": 999, "REV_AT_EPOCH": 88236, "BSTAR": 0.00099611109, "MEAN_MOTION_DOT": 4.723e-05, "MEAN_MOTION_DDOT": 0}, "tle": {"line1": "1 34139U 93036LL  25352.67445662  .00004723  00000+0  99611-3 0  9992", "line2": "2 34139  74.0309 242.7506 0042547 312.8580  69.3893 14.59140035882367"}}, "geometry": {"type": "Point", "coordinates": [-5.624021563255273, 72.72508884412345]}}]}